NORAD_CAT_ID,OBJECT_NAME,OBJECT_TYPE,EPOCH,MEAN_MOTION,ECCENTRICITY,INCLINATION,RA_OF_ASC_NODE,ARG_OF_PERICENTER,MEAN_ANOMALY,BSTAR,MEAN_MOTION_DOT,MEAN_MOTION_DDOT,TLE_LINE0,TLE_LINE1,TLE_LINE2,SEMIMAJOR_AXIS,PERIOD,APOGEE,PERIGEE,DECAYED
53423.0,STARLINK-4539,PAYLOAD,2023-06-14 07:31:26,15.08840846,0.0001284,53.2174,280.5047,83.8305,276.2833,7.4916e-05,9.05e-06,0.0,0 STARLINK-4539,1 53423U 22097AM  23165.31350399  .00000905  00000-0  74916-4 0  9992,2 53423  53.2174 280.5047 0001284  83.8305 276.2833 15.08840846 47757,6917.878,95.438,540.631,538.855,0.0
53423.0,STARLINK-4539,PAYLOAD,2023-06-15 10:33:00,15.08834693,0.0001305,53.2175,275.4499,76.2301,283.8837,2.2371e-05,6.8e-07,0.0,0 STARLINK-4539,1 53423U 22097AM  23166.43958979  .00000068  00000-0  22371-4 0  9992,2 53423  53.2175 275.4499 0001305  76.2301 283.8837 15.08834693 47467,6917.897,95.438,540.664,538.859,0.0
53423.0,STARLINK-4539,PAYLOAD,2023-06-15 13:43:46,15.08838359,0.0001337,53.2174,274.8554,74.9296,285.1844,1.2133e-05,-9.5e-07,0.0,0 STARLINK-4539,1 53423U 22097AM  23166.57206836 -.00000095  00000-0  12133-4 0  9991,2 53423  53.2174 274.8554 0001337  74.9296 285.1844 15.08838359 47943,6917.885,95.438,540.675,538.825,0.0
53423.0,STARLINK-4539,PAYLOAD,2023-06-15 16:54:32,15.0884114,0.0001231,53.2169,274.2585,87.275,272.8383,5.5302e-05,5.92e-06,0.0,0 STARLINK-4539,1 53423U 22097AM  23166.70454436  .00000592  00000-0  55302-4 0  9993,2 53423  53.2169 274.2585 0001231  87.2750 272.8383 15.08841140 47505,6917.877,95.437,540.593,538.89,0.0
53423.0,STARLINK-4539,PAYLOAD,2023-06-16 13:34:32,15.08854843,0.0001191,53.2166,270.3915,92.1974,267.9155,0.00015524,2.185e-05,0.0,0 STARLINK-4539,1 53423U 22097AM  23167.56565053  .00002185  00000-0  15524-3 0  9997,2 53423  53.2166 270.3915 0001191  92.1974 267.9155 15.08854843 48095,6917.835,95.437,540.524,538.876,0.0
53423.0,STARLINK-4539,PAYLOAD,2023-06-16 16:45:17,15.08863987,0.0001364,53.2165,269.7965,104.6718,255.4425,0.00010914,1.451e-05,0.0,0 STARLINK-4539,1 53423U 22097AM  23167.69812398  .00001451  00000-0  10914-3 0  9991,2 53423  53.2165 269.7965 0001364 104.6718 255.4425 15.08863987 48112,6917.807,95.436,540.616,538.728,0.0
53423.0,STARLINK-4539,PAYLOAD,2023-06-17 13:25:21,15.08822832,0.0001152,53.2165,265.9313,103.7319,256.3801,-4.9501e-05,-1.075e-05,0.0,0 STARLINK-4539,1 53423U 22097AM  23168.55928015 -.00001075  00000-0 -49501-4 0  9990,2 53423  53.2165 265.9313 0001152 103.7319 256.3801 15.08822832 48245,6917.933,95.439,540.595,539.001,0.0
53423.0,STARLINK-4539,PAYLOAD,2023-06-17 16:36:08,15.08823208,0.0001084,53.2171,265.3361,104.808,255.3033,-7.943e-05,-1.551e-05,0.0,0 STARLINK-4539,1 53423U 22097AM  23168.69176184 -.00001551  00000-0 -79430-4 0  9990,2 53423  53.2171 265.3361 0001084 104.8080 255.3033 15.08823208 47805,6917.932,95.439,540.547,539.047,0.0
53423.0,STARLINK-4539,PAYLOAD,2023-06-17 22:57:40,15.08829004,0.0001091,53.2166,264.1481,103.034,257.0774,-2.8734e-05,-7.45e-06,0.0,0 STARLINK-4539,1 53423U 22097AM  23168.95671929 -.00000745  00000-0 -28734-4 0  9991,2 53423  53.2166 264.1481 0001091 103.0340 257.0774 15.08829004 47842,6917.914,95.438,540.534,539.024,0.0
53423.0,STARLINK-4539,PAYLOAD,2023-06-18 13:16:08,15.08841811,0.0001006,53.216,261.4714,104.8873,255.223,4.1158e-05,3.67e-06,0.0,0 STARLINK-4539,1 53423U 22097AM  23169.55287073  .00000367  00000-0  41158-4 0  9994,2 53423  53.2160 261.4714 0001006 104.8873 255.2230 15.08841811 48399,6917.875,95.437,540.436,539.044,0.0
53423.0,STARLINK-4539,PAYLOAD,2023-06-19 13:06:55,15.08851232,9.83e-05,53.2152,257.0116,111.14,248.9697,0.00045692,6.994e-05,0.0,0 STARLINK-4539,1 53423U 22097AM  23170.54647108  .00006994  00000-0  45692-3 0  9992,2 53423  53.2152 257.0116 0000983 111.1400 248.9697 15.08851232 48548,6917.846,95.437,540.391,539.031,0.0
53423.0,STARLINK-4539,PAYLOAD,2023-06-20 00:14:36,15.08850098,9.74e-05,53.2154,254.9316,92.367,267.7433,0.00021067,3.068e-05,0.0,0 STARLINK-4539,1 53423U 22097AM  23171.01014943  .00003068  00000-0  21067-3 0  9999,2 53423  53.2154 254.9316 0000974  92.3670 267.7433 15.08850098 48150,6917.85,95.437,540.388,539.041,0.0
53423.0,STARLINK-4539,PAYLOAD,2023-06-20 08:11:33,15.08836178,9.74e-05,53.2157,253.4437,88.8131,271.2972,-3.4198e-05,-8.32e-06,0.0,0 STARLINK-4539,1 53423U 22097AM  23171.34135584 -.00000832  00000-0 -34198-4 0  9998,2 53423  53.2157 253.4437 0000974  88.8131 271.2972 15.08836178 48200,6917.892,95.438,540.431,539.083,0.0
53423.0,STARLINK-4539,PAYLOAD,2023-06-21 12:48:29,15.08844984,9.11e-05,53.2159,248.0903,98.2817,261.8278,3.0272e-05,1.94e-06,0.0,0 STARLINK-4539,1 53423U 22097AM  23172.53367187  .00000194  00000-0  30272-4 0  9994,2 53423  53.2159 248.0903 0000911  98.2817 261.8278 15.08844984 48384,6917.865,95.437,540.36,539.1,0.0
53423.0,STARLINK-4539,PAYLOAD,2023-06-21 23:56:12,15.08797399,0.0001579,53.216,246.0091,87.0683,273.049,0.00073381,0.00011396,0.0,0 STARLINK-4539,1 53423U 22097AM  23172.99737111  .00011396  00000-0  73381-3 0  9995,2 53423  53.2160 246.0091 0001579  87.0683 273.0490 15.08797399 48456,6918.011,95.44,540.968,538.783,0.0
53423.0,STARLINK-4539,PAYLOAD,2023-06-22 11:03:53,15.08840775,9.75e-05,53.216,243.9268,81.6933,278.417,0.00012345,1.678e-05,0.0,0 STARLINK-4539,1 53423U 22097AM  23173.46103204  .00001678  00000-0  12345-3 0  9993,2 53423  53.2160 243.9268 0000975  81.6933 278.4170 15.08840775 48524,6917.878,95.438,540.418,539.069,0.0
53423.0,STARLINK-4539,PAYLOAD,2023-06-23 23:37:45,15.0884035,9.18e-05,53.2155,237.0861,90.2421,269.8676,6.6247e-05,7.67e-06,0.0,0 STARLINK-4539,1 53423U 22097AM  23174.98455208  .00000767  00000-0  66247-4 0  9994,2 53423  53.2155 237.0861 0000918  90.2421 269.8676 15.08840350 48755,6917.879,95.438,540.379,539.109,0.0
53423.0,STARLINK-4539,PAYLOAD,2023-06-24 07:34:41,15.08832845,9.91e-05,53.2159,235.6007,89.9343,270.1763,-5.0225e-06,-3.68e-06,0.0,0 STARLINK-4539,1 53423U 22097AM  23175.31575935 -.00000368  00000-0 -50225-5 0  9991,2 53423  53.2159 235.6007 0000991  89.9343 270.1763 15.08832845 48802,6917.902,95.438,540.453,539.082,0.0
53423.0,STARLINK-4539,PAYLOAD,2023-06-25 10:36:14,15.0884882,0.0001002,53.2159,230.5464,84.4223,275.6883,4.108e-05,3.66e-06,0.0,0 STARLINK-4539,1 53423U 22097AM  23176.44182941  .00000366  00000-0  41080-4 0  9991,2 53423  53.2159 230.5464 0001002  84.4223 275.6883 15.08848820 48975,6917.853,95.437,540.412,539.025,0.0
53423.0,STARLINK-4539,PAYLOAD,2023-06-25 20:08:33,15.08841298,0.0001027,53.2157,228.7622,84.3594,275.7516,5.2664e-06,-2.04e-06,0.0,0 STARLINK-4539,1 53423U 22097AM  23176.83927458 -.00000204  00000-0  52664-5 0  9997,2 53423  53.2157 228.7622 0001027  84.3594 275.7516 15.08841298 49039,6917.876,95.437,540.452,539.031,0.0
53423.0,STARLINK-4539,PAYLOAD,2023-06-26 08:51:39,15.08828323,0.0001269,53.2151,226.3838,97.5742,262.5394,6.6249e-05,7.66e-06,0.0,0 STARLINK-4539,1 53423U 22097AM  23177.36920426  .00000766  00000-0  66249-4 0  9999,2 53423  53.2151 226.3838 0001269  97.5742 262.5394 15.08828323 49116,6917.916,95.438,540.659,538.903,0.0
53423.0,STARLINK-4539,PAYLOAD,2023-06-27 10:17:49,15.08834167,0.0001073,53.215,221.625,93.0747,267.0368,4.1384e-06,-2.22e-06,0.0,0 STARLINK-4539,1 53423U 22097AM  23178.42904937 -.00000222  00000-0  41384-5 0  9998,2 53423  53.2150 221.6250 0001073  93.0747 267.0368 15.08834167 49271,6917.898,95.438,540.506,539.021,0.0
53423.0,STARLINK-4539,PAYLOAD,2023-06-28 10:08:40,15.08777836,0.0001504,53.2149,217.1642,81.5944,278.5218,0.0021609,0.00034212,0.0,0 STARLINK-4539,1 53423U 22097AM  23179.42268538  .00034212  00000-0  21609-2 0  9999,2 53423  53.2149 217.1642 0001504  81.5944 278.5218 15.08777836 49421,6918.07,95.441,540.976,538.895,0.0
53423.0,STARLINK-4539,PAYLOAD,2023-06-28 19:40:55,15.08840074,0.0001083,53.2147,215.3796,91.9967,268.1149,0.00025225,3.729e-05,0.0,0 STARLINK-4539,1 53423U 22097AM  23179.82008860  .00003729  00000-0  25225-3 0  9991,2 53423  53.2147 215.3796 0001083  91.9967 268.1149 15.08840074 49480,6917.88,95.438,540.494,538.996,0.0
53423.0,STARLINK-4539,PAYLOAD,2023-07-01 01:44:01,15.08843201,0.0001116,53.2142,205.2689,89.2507,270.8613,4.7433e-05,4.67e-06,0.0,0 STARLINK-4539,1 53423U 22097AM  23182.07224143  .00000467  00000-0  47433-4 0  9998,2 53423  53.2142 205.2689 0001116  89.2507 270.8613 15.08843201 49820,6917.871,95.437,540.508,538.964,0.0
53423.0,STARLINK-4539,PAYLOAD,2023-07-02 07:56:21,15.08840324,0.0001094,53.2157,199.6183,92.1981,267.9136,1.4005e-05,-6.5e-07,0.0,0 STARLINK-4539,1 53423U 22097AM  23183.33080220 -.00000065  00000-0  14005-4 0  9998,2 53423  53.2157 199.6183 0001094  92.1981 267.9136 15.08840324 50018,6917.879,95.438,540.501,538.988,0.0
53423.0,STARLINK-4539,PAYLOAD,2023-07-03 10:57:54,15.08838147,0.0001056,53.2156,194.5637,89.9632,270.1481,6.6196e-05,7.66e-06,0.0,0 STARLINK-4539,1 53423U 22097AM  23184.45688305  .00000766  00000-0  66196-4 0  9995,2 53423  53.2156 194.5637 0001056  89.9632 270.1481 15.08838147 50187,6917.886,95.438,540.482,539.021,0.0
53423.0,STARLINK-4539,PAYLOAD,2023-07-04 17:10:14,15.08838237,0.0001028,53.2156,188.9134,87.3068,272.8041,5.0692e-05,5.19e-06,0.0,0 STARLINK-4539,1 53423U 22097AM  23185.71544569  .00000519  00000-0  50692-4 0  9998,2 53423  53.2156 188.9134 0001028  87.3068 272.8041 15.08838237 50372,6917.886,95.438,540.462,539.04,0.0
53423.0,STARLINK-4539,PAYLOAD,2023-07-06 00:57:57,15.08839014,0.000104,53.216,182.9655,90.4442,269.6669,6.0885e-05,6.81e-06,0.0,0 STARLINK-4539,1 53423U 22097AM  23187.04024609  .00000681  00000-0  60885-4 0  9999,2 53423  53.2160 182.9655 0001040  90.4442 269.6669 15.08839014 50570,6917.883,95.438,540.468,539.029,0.0
53423.0,STARLINK-4539,PAYLOAD,2023-07-07 05:34:53,15.08838621,0.0001072,53.2163,177.613,88.7352,271.3763,4.1965e-05,3.8e-06,0.0,0 STARLINK-4539,1 53423U 22097AM  23188.23256902  .00000380  00000-0  41965-4 0  9998,2 53423  53.2163 177.6130 0001072  88.7352 271.3763 15.08838621 50755,6917.885,95.438,540.491,539.008,0.0
